ONEWEB-0718             
1 56081U 23043AM  25237.55685192 -.00000093  00000+0 -28043-3 0  9995
2 56081  87.9072 318.1863 0001681 116.3857 243.7446 13.15548514117569
ONEWEB-0561             
1 56710U 23068A   25237.29174511  .00000108  00000+0  23249-3 0  9998
2 56710  87.9292 333.4301 0002314  90.3909 269.7489 13.20772304110449
ONEWEB-0668             
1 56711U 23068B   25237.60043110  .00000077  00000+0  16656-3 0  9993
2 56711  87.9022 287.6768 0001922 111.2579 248.8757 13.16591623112882
ONEWEB-0676             
1 56712U 23068C   25237.50466938  .00000027  00000+0  36721-4 0  9991
2 56712  87.9013 287.7169 0002258  89.9557 270.1833 13.16593670112796
ONEWEB-0677             
1 56713U 23068D   25237.28069810  .00000069  00000+0  13757-3 0  9994
2 56713  87.9291 333.4086 0002228 101.4050 258.7334 13.20773738110748
ONEWEB-0678             
1 56714U 23068E   25237.60121290  .00000156  00000+0  38155-3 0  9998
2 56714  87.9077 318.1495 0001825  88.4215 271.7125 13.15547633110429
ONEWEB-0679             
1 56715U 23068F   25237.54980375 -.00000042  00000+0 -14306-3 0  9997
2 56715  87.9013 287.7002 0002414 103.7521 256.3879 13.16593053112820
ONEWEB-0680             
1 56716U 23068G   25237.20001324  .00000176  00000+0  39353-3 0  9994
2 56716  87.9235 303.0253 0002130 115.0812 245.0543 13.21828269111997
ONEWEB-0681             
1 56717U 23068H   25237.55644797  .00000014  00000+0  18098-5 0  9996
2 56717  87.9244 302.9704 0003041  90.7299 269.4184 13.21825745112030
ONEWEB-0682             
1 56718U 23068J   25237.24705781  .00000334  00000+0  85209-3 0  9995
2 56718  87.9058 318.2424 0001956 117.6543 242.4786 13.15545255110548
ONEWEB-0683             
1 56719U 23068K   25237.26846334  .00000047  00000+0  89828-4 0  9991
2 56719  87.9070 318.2147 0001970 107.5311 252.6035 13.15548296110517
ONEWEB-0684             
1 56720U 23068L   25237.27638420  .00000136  00000+0  32776-3 0  9997
2 56720  87.9049 318.2152 0001088  52.0576 308.0653 13.15548160110341
ONEWEB-0686             
1 56721U 23068M   25237.61547031 -.00001556  00000+0 -41065-2 0  9992
2 56721  87.9005 287.7182 0001714 103.8325 256.2997 13.16582704112823
ONEWEB-0694             
1 56722U 23068N   25237.50627347  .00000075  00000+0  16150-3 0  9991
2 56722  87.9020 287.6669 0002071 108.1774 251.9583 13.16593633112863
ONEWEB-0696             
1 56723U 23068P   25237.61388781 -.00000183  00000+0 -52072-3 0  9995
2 56723  87.9073 318.1989 0001822  89.0684 271.0655 13.15548798110500
ONEWEB-0703             
1 56724U 23068Q   25237.24310740  .00000356  00000+0  91061-3 0  9996
2 56724  87.9060 318.2585 0002355  71.7542 288.3845 13.15547312110348
