[{"OBJECT_NAME":"ONEWEB-0718","OBJECT_ID":"2023-043AM","EPOCH":"2025-08-25T13:21:52.005888","MEAN_MOTION":13.15548514,"ECCENTRICITY":0.00016812,"INCLINATION":87.9072,"RA_OF_ASC_NODE":318.1863,"ARG_OF_PERICENTER":116.3857,"MEAN_ANOMALY":243.7446,"EPHEMERIS_TYPE":0,"CLASSIFICATION_TYPE":"U","NORAD_CAT_ID":56081,"ELEMENT_SET_NO":999,"REV_AT_EPOCH":11756,"BSTAR":-0.00028043192,"MEAN_MOTION_DOT":-9.3e-7,"MEAN_MOTION_DDOT":0},{"OBJECT_NAME":"ONEWEB-0561","OBJECT_ID":"2023-068A","EPOCH":"2025-08-25T07:00:06.777504","MEAN_MOTION":13.20772304,"ECCENTRICITY":0.00023141,"INCLINATION":87.9292,"RA_OF_ASC_NODE":333.4301,"ARG_OF_PERICENTER":90.3909,"MEAN_ANOMALY":269.7489,"EPHEMERIS_TYPE":0,"CLASSIFICATION_TYPE":"U","NORAD_CAT_ID":56710,"ELEMENT_SET_NO":999,"REV_AT_EPOCH":11044,"BSTAR":0.00023248881,"MEAN_MOTION_DOT":1.08e-6,"MEAN_MOTION_DDOT":0},{"OBJECT_NAME":"ONEWEB-0668","OBJECT_ID":"2023-068B","EPOCH":"2025-08-25T14:24:37.247040","MEAN_MOTION":13.16591623,"ECCENTRICITY":0.00019224,"INCLINATION":87.9022,"RA_OF_ASC_NODE":287.6768,"ARG_OF_PERICENTER":111.2579,"MEAN_ANOMALY":248.8757,"EPHEMERIS_TYPE":0,"CLASSIFICATION_TYPE":"U","NORAD_CAT_ID":56711,"ELEMENT_SET_NO":999,"REV_AT_EPOCH":11288,"BSTAR":0.00016655593,"MEAN_MOTION_DOT":7.7e-7,"MEAN_MOTION_DDOT":0},{"OBJECT_NAME":"ONEWEB-0676","OBJECT_ID":"2023-068C","EPOCH":"2025-08-25T12:06:43.434432","MEAN_MOTION":13.1659367,"ECCENTRICITY":0.00022587,"INCLINATION":87.9013,"RA_OF_ASC_NODE":287.7169,"ARG_OF_PERICENTER":89.9557,"MEAN_ANOMALY":270.1833,"EPHEMERIS_TYPE":0,"CLASSIFICATION_TYPE":"U","NORAD_CAT_ID":56712,"ELEMENT_SET_NO":999,"REV_AT_EPOCH":11279,"BSTAR":3.6720612e-5,"MEAN_MOTION_DOT":2.7e-7,"MEAN_MOTION_DDOT":0},{"OBJECT_NAME":"ONEWEB-0677","OBJECT_ID":"2023-068D","EPOCH":"2025-08-25T06:44:12.315840","MEAN_MOTION":13.20773738,"ECCENTRICITY":0.00022289,"INCLINATION":87.9291,"RA_OF_ASC_NODE":333.4086,"ARG_OF_PERICENTER":101.405,"MEAN_ANOMALY":258.7334,"EPHEMERIS_TYPE":0,"CLASSIFICATION_TYPE":"U","NORAD_CAT_ID":56713,"ELEMENT_SET_NO":999,"REV_AT_EPOCH":11074,"BSTAR":0.00013756622,"MEAN_MOTION_DOT":6.9e-7,"MEAN_MOTION_DDOT":0},{"OBJECT_NAME":"ONEWEB-0678","OBJECT_ID":"2023-068E","EPOCH":"2025-08-25T14:25:44.794560","MEAN_MOTION":13.15547633,"ECCENTRICITY":0.00018259,"INCLINATION":87.9077,"RA_OF_ASC_NODE":318.1495,"ARG_OF_PERICENTER":88.4215,"MEAN_ANOMALY":271.7125,"EPHEMERIS_TYPE":0,"CLASSIFICATION_TYPE":"U","NORAD_CAT_ID":56714,"ELEMENT_SET_NO":999,"REV_AT_EPOCH":11042,"BSTAR":0.00038155138,"MEAN_MOTION_DOT":1.56e-6,"MEAN_MOTION_DDOT":0},{"OBJECT_NAME":"ONEWEB-0679","OBJECT_ID":"2023-068F","EPOCH":"2025-08-25T13:11:43.044000","MEAN_MOTION":13.16593053,"ECCENTRICITY":0.00024149,"INCLINATION":87.9013,"RA_OF_ASC_NODE":287.7002,"ARG_OF_PERICENTER":103.7521,"MEAN_ANOMALY":256.3879,"EPHEMERIS_TYPE":0,"CLASSIFICATION_TYPE":"U","NORAD_CAT_ID":56715,"ELEMENT_SET_NO":999,"REV_AT_EPOCH":11282,"BSTAR":-0.00014305754,"MEAN_MOTION_DOT":-4.2e-7,"MEAN_MOTION_DDOT":0},{"OBJECT_NAME":"ONEWEB-0680","OBJECT_ID":"2023-068G","EPOCH":"2025-08-25T04:48:01.143936","MEAN_MOTION":13.21828269,"ECCENTRICITY":0.00021307,"INCLINATION":87.9235,"RA_OF_ASC_NODE":303.0253,"ARG_OF_PERICENTER":115.0812,"MEAN_ANOMALY":245.0543,"EPHEMERIS_TYPE":0,"CLASSIFICATION_TYPE":"U","NORAD_CAT_ID":56716,"ELEMENT_SET_NO":999,"REV_AT_EPOCH":11199,"BSTAR":0.00039353268,"MEAN_MOTION_DOT":1.76e-6,"MEAN_MOTION_DDOT":0},{"OBJECT_NAME":"ONEWEB-0681","OBJECT_ID":"2023-068H","EPOCH":"2025-08-25T13:21:17.104608","MEAN_MOTION":13.21825745,"ECCENTRICITY":0.0003041,"INCLINATION":87.9244,"RA_OF_ASC_NODE":302.9704,"ARG_OF_PERICENTER":90.7299,"MEAN_ANOMALY":269.4184,"EPHEMERIS_TYPE":0,"CLASSIFICATION_TYPE":"U","NORAD_CAT_ID":56717,"ELEMENT_SET_NO":999,"REV_AT_EPOCH":11203,"BSTAR":1.809804e-6,"MEAN_MOTION_DOT":1.4e-7,"MEAN_MOTION_DDOT":0},{"OBJECT_NAME":"ONEWEB-0682","OBJECT_ID":"2023-068J","EPOCH":"2025-08-25T05:55:45.794784","MEAN_MOTION":13.15545255,"ECCENTRICITY":0.0001956,"INCLINATION":87.9058,"RA_OF_ASC_NODE":318.2424,"ARG_OF_PERICENTER":117.6543,"MEAN_ANOMALY":242.4786,"EPHEMERIS_TYPE":0,"CLASSIFICATION_TYPE":"U","NORAD_CAT_ID":56718,"ELEMENT_SET_NO":999,"REV_AT_EPOCH":11054,"BSTAR":0.00085208757,"MEAN_MOTION_DOT":3.34e-6,"MEAN_MOTION_DDOT":0},{"OBJECT_NAME":"ONEWEB-0683","OBJECT_ID":"2023-068K","EPOCH":"2025-08-25T06:26:35.232576","MEAN_MOTION":13.15548296,"ECCENTRICITY":0.00019704,"INCLINATION":87.907,"RA_OF_ASC_NODE":318.2147,"ARG_OF_PERICENTER":107.5311,"MEAN_ANOMALY":252.6035,"EPHEMERIS_TYPE":0,"CLASSIFICATION_TYPE":"U","NORAD_CAT_ID":56719,"ELEMENT_SET_NO":999,"REV_AT_EPOCH":11051,"BSTAR":8.982808e-5,"MEAN_MOTION_DOT":4.7e-7,"MEAN_MOTION_DDOT":0},{"OBJECT_NAME":"ONEWEB-0684","OBJECT_ID":"2023-068L","EPOCH":"2025-08-25T06:37:59.594880","MEAN_MOTION":13.1554816,"ECCENTRICITY":0.00010885,"INCLINATION":87.9049,"RA_OF_ASC_NODE":318.2152,"ARG_OF_PERICENTER":52.0576,"MEAN_ANOMALY":308.0653,"EPHEMERIS_TYPE":0,"CLASSIFICATION_TYPE":"U","NORAD_CAT_ID":56720,"ELEMENT_SET_NO":999,"REV_AT_EPOCH":11034,"BSTAR":0.00032776176,"MEAN_MOTION_DOT":1.36e-6,"MEAN_MOTION_DDOT":0},{"OBJECT_NAME":"ONEWEB-0686","OBJECT_ID":"2023-068M","EPOCH":"2025-08-25T14:46:16.634784","MEAN_MOTION":13.16582704,"ECCENTRICITY":0.00017143,"INCLINATION":87.9005,"RA_OF_ASC_NODE":287.7182,"ARG_OF_PERICENTER":103.8325,"MEAN_ANOMALY":256.2997,"EPHEMERIS_TYPE":0,"CLASSIFICATION_TYPE":"U","NORAD_CAT_ID":56721,"ELEMENT_SET_NO":999,"REV_AT_EPOCH":11282,"BSTAR":-0.0041065335,"MEAN_MOTION_DOT":-1.556e-5,"MEAN_MOTION_DDOT":0},{"OBJECT_NAME":"ONEWEB-0694","OBJECT_ID":"2023-068N","EPOCH":"2025-08-25T12:09:02.027808","MEAN_MOTION":13.16593633,"ECCENTRICITY":0.00020713,"INCLINATION":87.902,"RA_OF_ASC_NODE":287.6669,"ARG_OF_PERICENTER":108.1774,"MEAN_ANOMALY":251.9583,"EPHEMERIS_TYPE":0,"CLASSIFICATION_TYPE":"U","NORAD_CAT_ID":56722,"ELEMENT_SET_NO":999,"REV_AT_EPOCH":11286,"BSTAR":0.00016149613,"MEAN_MOTION_DOT":7.5e-7,"MEAN_MOTION_DDOT":0},{"OBJECT_NAME":"ONEWEB-0696","OBJECT_ID":"2023-068P","EPOCH":"2025-08-25T14:43:59.906784","MEAN_MOTION":13.15548798,"ECCENTRICITY":0.00018228,"INCLINATION":87.9073,"RA_OF_ASC_NODE":318.1989,"ARG_OF_PERICENTER":89.0684,"MEAN_ANOMALY":271.0655,"EPHEMERIS_TYPE":0,"CLASSIFICATION_TYPE":"U","NORAD_CAT_ID":56723,"ELEMENT_SET_NO":999,"REV_AT_EPOCH":11050,"BSTAR":-0.00052071766,"MEAN_MOTION_DOT":-1.83e-6,"MEAN_MOTION_DDOT":0},{"OBJECT_NAME":"ONEWEB-0703","OBJECT_ID":"2023-068Q","EPOCH":"2025-08-25T05:50:04.479360","MEAN_MOTION":13.15547312,"ECCENTRICITY":0.00023552,"INCLINATION":87.906,"RA_OF_ASC_NODE":318.2585,"ARG_OF_PERICENTER":71.7542,"MEAN_ANOMALY":288.3845,"EPHEMERIS_TYPE":0,"CLASSIFICATION_TYPE":"U","NORAD_CAT_ID":56724,"ELEMENT_SET_NO":999,"REV_AT_EPOCH":11034,"BSTAR":0.00091061324,"MEAN_MOTION_DOT":3.56e-6,"MEAN_MOTION_DDOT":0}]
